NORAD_CAT_ID,OBJECT_NAME,OBJECT_TYPE,EPOCH,MEAN_MOTION,ECCENTRICITY,INCLINATION,RA_OF_ASC_NODE,ARG_OF_PERICENTER,MEAN_ANOMALY,BSTAR,MEAN_MOTION_DOT,MEAN_MOTION_DDOT,TLE_LINE0,TLE_LINE1,TLE_LINE2,SEMIMAJOR_AXIS,PERIOD,APOGEE,PERIGEE,DECAYED
54792.0,STARLINK-5431,PAYLOAD,2023-02-15 10:07:13,15.0885202,0.0001492,53.2178,23.8548,81.6878,278.4283,9.7078e-05,1.258e-05,0.0,0 STARLINK-5431,1 54792U 22175AL  23046.42168577  .00001258  00000-0  97078-4 0  9990,2 54792  53.2178  23.8548 0001492  81.6878 278.4283 15.08852020 11107,6917.844,95.437,540.741,538.677,0.0
54792.0,STARLINK-5431,PAYLOAD,2023-02-15 14:53:24,15.0883088,0.0001407,53.2171,22.9629,87.9167,272.1987,-0.00014074,-2.527e-05,0.0,0 STARLINK-5431,1 54792U 22175AL  23046.62042492 -.00002527  00000-0 -14074-3 0  9995,2 54792  53.2171  22.9629 0001407  87.9167 272.1987 15.08830880  8979,6917.908,95.438,540.747,538.8,0.0
54792.0,STARLINK-5431,PAYLOAD,2023-02-16 02:01:04,15.08854837,0.000137,53.2159,20.8798,82.2886,277.8261,9.9464e-05,1.296e-05,0.0,0 STARLINK-5431,1 54792U 22175AL  23047.08408077  .00001296  00000-0  99464-4 0  9998,2 54792  53.2159  20.8798 0001370  82.2886 277.8261 15.08854837  9048,6917.835,95.437,540.648,538.752,0.0
54792.0,STARLINK-5431,PAYLOAD,2023-02-16 06:47:10,15.0888792,0.0001376,53.2165,19.9871,93.4889,266.6261,0.00043035,6.577e-05,0.0,0 STARLINK-5431,1 54792U 22175AL  23047.28276507  .00006577  00000-0  43035-3 0  9990,2 54792  53.2165  19.9871 0001376  93.4889 266.6261 15.08887920  9077,6917.734,95.435,540.551,538.647,0.0
54792.0,STARLINK-5431,PAYLOAD,2023-02-16 14:44:12,15.08814031,0.0002709,53.2165,18.5009,77.9456,282.1839,-0.00018081,-3.163e-05,0.0,0 STARLINK-5431,1 54792U 22175AL  23047.61403621 -.00003163  00000-0 -18081-3 0  9999,2 54792  53.2165  18.5009 0002709  77.9456 282.1839 15.08814031  9126,6917.96,95.439,541.699,537.951,0.0
54792.0,STARLINK-5431,PAYLOAD,2023-02-17 08:13:26,15.08828686,0.0001113,53.2179,15.2313,81.0655,279.0463,-0.00016079,-2.845e-05,0.0,0 STARLINK-5431,1 54792U 22175AL  23048.34267050 -.00002845  00000-0 -16079-3 0  9995,2 54792  53.2179  15.2313 0001113  81.0655 279.0463 15.08828686  9239,6917.915,95.438,540.55,539.01,0.0
54792.0,STARLINK-5431,PAYLOAD,2023-02-17 14:34:59,15.08827651,0.0001179,53.2181,14.0424,85.2783,274.8344,-0.0001868,-3.258e-05,0.0,0 STARLINK-5431,1 54792U 22175AL  23048.60763490 -.00003258  00000-0 -18680-3 0  9992,2 54792  53.2181  14.0424 0001179  85.2783 274.8344 15.08827651 11439,6917.918,95.438,540.599,538.968,0.0
54792.0,STARLINK-5431,PAYLOAD,2023-02-18 06:28:50,15.08849689,0.000117,53.217,11.0691,91.1992,268.9134,-0.00036299,-6.062e-05,0.0,0 STARLINK-5431,1 54792U 22175AL  23049.27003364 -.00006062  00000-0 -36299-3 0  9995,2 54792  53.2170  11.0691 0001170  91.1992 268.9134 15.08849689  9375,6917.851,95.437,540.525,538.906,0.0
54792.0,STARLINK-5431,PAYLOAD,2023-02-18 14:25:45,15.08860941,0.0001298,53.2179,9.5823,88.4606,271.6534,-0.00022373,-3.849e-05,0.0,0 STARLINK-5431,1 54792U 22175AL  23049.60121957 -.00003849  00000-0 -22373-3 0  9999,2 54792  53.2179   9.5823 0001298  88.4606 271.6534 15.08860941 11580,6917.816,95.436,540.579,538.783,0.0
54792.0,STARLINK-5431,PAYLOAD,2023-02-19 03:08:50,15.0883166,0.0001052,53.2176,7.203,78.1566,281.9545,0.00032745,4.926e-05,0.0,0 STARLINK-5431,1 54792U 22175AL  23050.13114354  .00004926  00000-0  32745-3 0  9991,2 54792  53.2176   7.2030 0001052  78.1566 281.9545 15.08831660  9502,6917.906,95.438,540.499,539.043,0.0
54792.0,STARLINK-5431,PAYLOAD,2023-02-19 06:19:36,15.088513,0.0001166,53.2167,6.6082,83.3447,276.7678,0.00032325,4.862e-05,0.0,0 STARLINK-5431,1 54792U 22175AL  23050.26361177  .00004862  00000-0  32325-3 0  9995,2 54792  53.2167   6.6082 0001166  83.3447 276.7678 15.08851300  9528,6917.846,95.437,540.517,538.904,0.0
54792.0,STARLINK-5431,PAYLOAD,2023-02-19 14:16:32,15.08840544,0.0001157,53.2156,5.1209,86.4708,273.6416,0.00015553,2.188e-05,0.0,0 STARLINK-5431,1 54792U 22175AL  23050.59482243  .00002188  00000-0  15553-3 0  9992,2 54792  53.2156   5.1209 0001157  86.4708 273.6416 15.08840544 11735,6917.879,95.438,540.544,538.943,0.0
54792.0,STARLINK-5431,PAYLOAD,2023-02-20 02:59:37,15.08846378,0.0001423,53.2173,2.7424,88.5172,271.5983,3.0021e-05,1.9e-06,0.0,0 STARLINK-5431,1 54792U 22175AL  23051.12474503  .00000190  00000-0  30021-4 0  9991,2 54792  53.2173   2.7424 0001423  88.5172 271.5983 15.08846378 11816,6917.861,95.437,540.71,538.741,0.0
54792.0,STARLINK-5431,PAYLOAD,2023-02-20 14:07:20,15.08841745,0.0001334,53.2178,0.6603,88.5465,271.568,-2.7297e-05,-7.22e-06,0.0,0 STARLINK-5431,1 54792U 22175AL  23051.58842795 -.00000722  00000-0 -27297-4 0  9997,2 54792  53.2178   0.6603 0001334  88.5465 271.5680 15.08841745  9727,6917.875,95.437,540.663,538.817,0.0
54792.0,STARLINK-5431,PAYLOAD,2023-02-21 06:01:11,15.08850851,0.0001482,53.2156,357.6855,100.0846,260.0313,-0.00010262,-1.921e-05,0.0,0 STARLINK-5431,1 54792U 22175AL  23052.25082219 -.00001921  00000-0 -10262-3 0  9994,2 54792  53.2156 357.6855 0001482 100.0846 260.0313 15.08850851  9829,6917.847,95.437,540.737,538.687,0.0
54792.0,STARLINK-5431,PAYLOAD,2023-02-22 02:41:11,15.08842702,0.0001643,53.218,353.8214,89.59,270.5281,1.904e-05,1.5e-07,0.0,0 STARLINK-5431,1 54792U 22175AL  23053.11194105  .00000015  00000-0  19040-4 0  9993,2 54792  53.2180 353.8214 0001643  89.5900 270.5281 15.08842702 12116,6917.872,95.437,540.874,538.601,0.0
54792.0,STARLINK-5431,PAYLOAD,2023-02-23 02:31:57,15.08847521,0.0001238,53.2162,349.3593,86.7208,273.3926,0.00010745,1.423e-05,0.0,0 STARLINK-5431,1 54792U 22175AL  23054.10553171  .00001423  00000-0  10745-3 0  9991,2 54792  53.2162 349.3593 0001238  86.7208 273.3926 15.08847521 10104,6917.857,95.437,540.579,538.866,0.0
54792.0,STARLINK-5431,PAYLOAD,2023-02-23 04:07:20,15.08851437,0.0001213,53.2173,349.0615,88.1491,271.964,9.6315e-05,1.246e-05,0.0,0 STARLINK-5431,1 54792U 22175AL  23054.17176920  .00001246  00000-0  96315-4 0  9992,2 54792  53.2173 349.0615 0001213  88.1491 271.9640 15.08851437 12279,6917.845,95.437,540.55,538.871,0.0
54792.0,STARLINK-5431,PAYLOAD,2023-02-23 20:01:14,15.08833123,0.0001181,53.2175,346.0903,86.0075,274.1052,-0.0001666,-2.938e-05,0.0,0 STARLINK-5431,1 54792U 22175AL  23054.83419229 -.00002938  00000-0 -16660-3 0  9992,2 54792  53.2175 346.0903 0001181  86.0075 274.1052 15.08833123 10213,6917.901,95.438,540.583,538.949,0.0
54792.0,STARLINK-5431,PAYLOAD,2023-02-24 02:22:46,15.08839875,0.0001173,53.2179,344.9026,86.681,273.4316,-0.00010434,-1.948e-05,0.0,0 STARLINK-5431,1 54792U 22175AL  23055.09914662 -.00001948  00000-0 -10434-3 0  9995,2 54792  53.2179 344.9026 0001173  86.6810 273.4316 15.08839875 10253,6917.881,95.438,540.557,538.934,0.0
54792.0,STARLINK-5431,PAYLOAD,2023-02-24 05:33:32,15.0884367,0.0001167,53.2174,344.3056,84.0538,276.0588,-7.319e-05,-1.453e-05,0.0,0 STARLINK-5431,1 54792U 22175AL  23055.23162270 -.00001453  00000-0 -73190-4 0  9991,2 54792  53.2174 344.3056 0001167  84.0538 276.0588 15.08843670 12437,6917.869,95.437,540.541,538.927,0.0
54792.0,STARLINK-5431,PAYLOAD,2023-02-24 19:52:01,15.08846036,0.0001078,53.2169,341.6292,86.8367,273.2749,-0.00024233,-4.143e-05,0.0,0 STARLINK-5431,1 54792U 22175AL  23055.82779228 -.00004143  00000-0 -24233-3 0  9995,2 54792  53.2169 341.6292 0001078  86.8367 273.2749 15.08846036 12521,6917.862,95.437,540.473,538.981,0.0
54792.0,STARLINK-5431,PAYLOAD,2023-02-25 03:48:56,15.08838013,0.0001098,53.2177,340.1432,87.8526,272.2592,-6.6327e-05,-1.343e-05,0.0,0 STARLINK-5431,1 54792U 22175AL  23056.15898927 -.00001343  00000-0 -66327-4 0  9990,2 54792  53.2177 340.1432 0001098  87.8526 272.2592 15.08838013 10417,6917.886,95.438,540.511,538.992,0.0
54792.0,STARLINK-5431,PAYLOAD,2023-02-26 03:39:43,15.08841869,0.000133,53.2178,335.6819,77.4142,282.6999,0.00013527,1.866e-05,0.0,0 STARLINK-5431,1 54792U 22175AL  23057.15258529  .00001866  00000-0  13527-3 0  9990,2 54792  53.2178 335.6819 0001330  77.4142 282.6999 15.08841869 10569,6917.875,95.437,540.66,538.82,0.0
54792.0,STARLINK-5431,PAYLOAD,2023-02-26 17:58:11,15.08841926,0.000134,53.2178,333.0069,77.407,282.7072,0.00013232,1.819e-05,0.0,0 STARLINK-5431,1 54792U 22175AL  23057.74874353  .00001819  00000-0  13232-3 0  9995,2 54792  53.2178 333.0069 0001340  77.4070 282.7072 15.08841926 12816,6917.875,95.437,540.666,538.813,0.0
54792.0,STARLINK-5431,PAYLOAD,2023-02-27 00:19:43,15.08852568,0.0001278,53.2174,331.8171,81.6863,278.4274,0.00015478,2.177e-05,0.0,0 STARLINK-5431,1 54792U 22175AL  23058.01369538  .00002177  00000-0  15478-3 0  9992,2 54792  53.2174 331.8171 0001278  81.6863 278.4274 15.08852568 10693,6917.842,95.437,540.591,538.823,0.0
54792.0,STARLINK-5431,PAYLOAD,2023-02-27 17:48:58,15.0884657,0.0001531,53.2177,328.547,73.5813,286.5348,-6.8012e-05,-1.37e-05,0.0,0 STARLINK-5431,1 54792U 22175AL  23058.74234562 -.00001370  00000-0 -68012-4 0  9999,2 54792  53.2177 328.5470 0001531  73.5813 286.5348 15.08846570 10809,6917.86,95.437,540.784,538.666,0.0
54792.0,STARLINK-5431,PAYLOAD,2023-02-27 20:59:44,15.08849467,0.000153,53.2178,327.9542,77.8564,282.2599,-4.7466e-05,-1.044e-05,0.0,0 STARLINK-5431,1 54792U 22175AL  23058.87482176 -.00001044  00000-0 -47466-4 0  9997,2 54792  53.2178 327.9542 0001530  77.8564 282.2599 15.08849467 12982,6917.851,95.437,540.775,538.658,0.0
54792.0,STARLINK-5431,PAYLOAD,2023-02-28 01:45:52,15.0886164,0.000177,53.2179,327.0605,75.7462,284.3727,5.7072e-05,6.21e-06,0.0,0 STARLINK-5431,1 54792U 22175AL  23059.07352928  .00000621  00000-0  57072-4 0  9993,2 54792  53.2179 327.0605 0001770  75.7462 284.3727 15.08861640 10851,6917.814,95.436,540.904,538.455,0.0
54792.0,STARLINK-5431,PAYLOAD,2023-02-28 03:21:15,15.08869017,0.0001525,53.2183,326.7613,78.4316,281.6848,7.3022e-05,8.75e-06,0.0,0 STARLINK-5431,1 54792U 22175AL  23059.13976221  .00000875  00000-0  73022-4 0  9992,2 54792  53.2183 326.7613 0001525  78.4316 281.6848 15.08869017 10868,6917.792,95.436,540.712,538.602,0.0
